OBJECT_NAME,OBJECT_ID,EPOCH,MEAN_MOTION,ECCENTRICITY,INCLINATION,RA_OF_ASC_NODE,ARG_OF_PERICENTER,MEAN_ANOMALY,EPHEMERIS_TYPE,CLASSIFICATION_TYPE,NORAD_CAT_ID,ELEMENT_SET_NO,REV_AT_EPOCH,BSTAR,MEAN_MOTION_DOT,MEAN_MOTION_DDOT
EYESAT A (AO-27),1993-061C,2026-07-03T15:24:05.061600,14.30946735,.0009299,98.6874,252.0488,57.1001,303.1075,0,U,22825,999,70935,.6611E-4,.129E-5,0
ITAMSAT (IO-26),1993-061D,2026-07-04T10:55:17.146848,14.31374357,.00095585,98.6820,252.7811,39.4050,320.7827,0,U,22826,999,70978,.66437632E-4,.132E-5,0
RADIO ROSTO (RS15),1994-085A,2026-07-04T16:14:02.782176,11.27583563,.0156534,64.8176,274.9321,0.6436,359.4663,0,U,23439,999,29787,.61025994E-3,-.21E-6,0
JAS-2 (FO-29),1996-046B,2026-07-04T19:59:59.651520,13.53275006,.03507285,98.5226,32.2868,50.7729,312.3996,0,U,24278,999,47555,.11394872E-4,-.22E-6,0
FORTE,1997-047A,2026-07-04T16:15:06.454656,14.27952788,.00245679,69.9545,334.5145,256.2124,103.6264,0,U,24920,999,50118,.1301928E-3,.266E-5,0
TECHSAT 1B (GO-32),1998-043D,2026-07-04T16:41:19.348512,14.24432028,.00018493,99.0076,178.8961,131.4740,228.6597,0,U,25397,999,45382,.64727903E-4,.103E-5,0
ISS (ZARYA),1998-067A,2026-07-04T19:09:56.682144,15.48894567,.00067612,51.6303,212.9192,256.1012,103.9224,0,U,25544,999,57448,.18504104E-3,.9725E-4,0
IMAGE,2000-017A,2026-06-30T21:52:49.688544,1.68666270,.7422471,94.2398,315.5527,286.2504,9.4555,0,U,26113,999,16173,0,-.33E-6,0
CLUSTER II-FM7 (SAMBA),2000-041A,2026-07-07T05:13:52.745376,0.44837774,.9079263,149.8716,54.4790,271.8893,359.5006,0,U,26410,999,2039,0,.7566E-4,0
CLUSTER II-FM8 (TANGO),2000-045B,2026-07-03T04:43:24.837600,0.44420887,.90785547,150.1065,54.7656,272.0035,2.3073,0,U,26464,999,2038,0,.12165E-3,0
ODIN,2001-007A,2026-07-04T14:01:13.908864,15.83489487,.00052711,97.3755,227.7265,136.8814,223.2869,0,U,26702,999,39214,.2383983E-2,.550414E-2,0
OMNI-M1,2001-026A,2026-07-02T00:09:17.717184,3.92402003,.00137998,44.8270,241.8483,56.1769,304.0224,0,U,26857,999,20615,0,.7E-7,0
PCSAT (NO-44),2001-043C,2026-07-04T18:14:51.403488,14.31962451,.00060118,67.0488,198.8194,265.8783,94.1632,0,U,26931,999,29296,.98038169E-4,.18E-5,0
PROBA-1,2001-049B,2026-07-04T23:47:48.912576,15.07577420,.00562309,97.9596,195.1461,63.5053,297.1926,0,U,26958,999,34630,.27671274E-3,.4292E-4,0
SAUDISAT 1C (SO-50),2002-058C,2026-07-04T16:29:59.668224,14.83086074,.0074817,64.5520,74.8394,259.1898,100.0781,0,U,27607,999,26705,.18211702E-3,.1404E-4,0
CORIOLIS,2003-001A,2026-07-04T17:49:51.486528,14.19949990,.00144237,98.7128,192.3598,157.9020,202.2781,0,U,27640,999,21671,.96081719E-4,.161E-5,0
CUTE-1 (CO-55),2003-031E,2026-07-04T17:45:02.691072,14.24347463,.00105167,98.6737,194.0777,129.7528,230.4579,0,U,27844,999,19417,.21011064E-3,.442E-5,0
CUBESAT XI-IV (CO-57),2003-031J,2026-07-04T22:44:44.423232,14.23630898,.00101029,98.6769,193.9817,146.4963,213.6856,0,U,27848,999,19390,.16663671E-3,.336E-5,0
MOZHAETS 4 (RS22),2003-042A,2026-07-05T00:21:25.250112,14.73499527,.00104311,98.3470,10.8774,206.7413,273.3478,0,U,27939,999,21817,.14537973E-3,.891E-5,0
